ONEWEB-0504             
1 54122U 22138K   26194.81577692 -.00000083  00000+0 -24014-3 0  9993
2 54122  87.9189 299.6654 0001874 108.9439 251.1897 13.19726025180348
ONEWEB-0505             
1 54123U 22138L   26194.73678007 -.00000011  00000+0 -59105-4 0  9998
2 54123  87.9184 299.6824 0001906 114.5353 245.5979 13.19727315180315
ONEWEB-0506             
1 54124U 22138M   26194.78735715  .00000035  00000+0  54327-4 0  9999
2 54124  87.9195 299.6689 0002002 110.0642 250.0706 13.19725196180311
ONEWEB-0507             
1 54125U 22138N   26194.80787566  .00000000  00000+0 -33416-4 0  9993
2 54125  87.9186 299.6743 0002036 106.7696 253.3660 13.19726402180362
ONEWEB-0508             
1 54126U 22138P   26194.80472109  .00000230  00000+0  54201-3 0  9996
2 54126  87.9161 299.6780 0002213 120.2852 239.8499 13.19726135180349
ONEWEB-0509             
1 54127U 22138Q   26194.85525826  .00000010  00000+0 -64387-5 0  9992
2 54127  87.9194 299.6571 0002016 105.2196 254.9160 13.19724241180326
ONEWEB-0510             
1 54128U 22138R   26194.72263909  .00000030  00000+0  41128-4 0  9998
2 54128  87.9176 269.1507 0002002  92.9569 267.1794 13.20770016182783
ONEWEB-0511             
1 54129U 22138S   26194.77627345  .00000041  00000+0  70769-4 0  9997
2 54129  87.9191 299.6740 0001725 102.9640 257.1685 13.19723506180349
ONEWEB-0512             
1 54130U 22138T   26194.84419705 -.00000046  00000+0 -14835-3 0  9994
2 54130  87.9182 299.6640 0001874 111.5951 248.5381 13.19726729180321
ONEWEB-0513             
1 54131U 22138U   26194.83885266 -.00000003  00000+0 -39941-4 0  9992
2 54131  87.9192 299.6058 0001486 125.3876 234.7396 13.20269331180230
ONEWEB-0514             
1 54132U 22138V   26194.85999902  .00000079  00000+0  16468-3 0  9997
2 54132  87.9189 299.6573 0001954  96.6314 263.5042 13.19726127180345
ONEWEB-0515             
1 54133U 22138W   26194.70918991  .00000082  00000+0  16935-3 0  9994
2 54133  87.9192 269.1470 0002779  88.4279 271.7173 13.20771723182806
ONEWEB-0516             
1 54134U 22138X   26194.83471787  .00000008  00000+0 -11781-4 0  9990
2 54134  87.9187 299.6655 0002127 102.8763 257.2607 13.19723976180343
ONEWEB-0517             
1 54135U 22138Y   26194.81419676  .00000030  00000+0  41999-4 0  9996
2 54135  87.9203 299.6628 0001775  93.8728 266.2608 13.19726045180342
ONEWEB-0518             
1 54136U 22138Z   26194.75732767  .00000007  00000+0 -15219-4 0  9990
2 54136  87.9184 299.6836 0002200 103.7587 256.3790 13.19723914180333
ONEWEB-0519             
1 54137U 22138AA  26194.85840662  .00000069  00000+0  14044-3 0  9997
2 54137  87.9191 299.6565 0001811  98.0724 262.0614 13.19723610180351
